OBJECT_NAME,OBJECT_ID,EPOCH,MEAN_MOTION,ECCENTRICITY,INCLINATION,RA_OF_ASC_NODE,ARG_OF_PERICENTER,MEAN_ANOMALY,EPHEMERIS_TYPE,CLASSIFICATION_TYPE,NORAD_CAT_ID,ELEMENT_SET_NO,REV_AT_EPOCH,BSTAR,MEAN_MOTION_DOT,MEAN_MOTION_DDOT
STARLINK-11514 [DTC],2025-004D,2026-02-22T17:02:47.244192,15.70900066,.00008897,42.9999,160.9337,269.6404,90.4362,0,U,62514,999,6485,.1638777E-2,.215927E-2,0
STARLINK-11508 [DTC],2025-004E,2026-02-22T18:25:23.345184,15.70905177,.00015226,42.9988,160.4999,282.8687,77.2011,0,U,62515,999,6486,.17930883E-2,.236956E-2,0
STARLINK-11510 [DTC],2025-004F,2026-02-22T22:00:01.999584,15.70912675,.00014967,42.9997,160.0493,284.8992,18.7435,0,U,62516,999,597,-.81637425E-3,-.104216E-2,0
STARLINK-11512 [DTC],2025-004G,2026-02-22T07:21:32.280768,15.71012592,.0001272,42.9985,163.0534,223.6718,136.4049,0,U,62517,999,6479,.2472E-2,.332147E-2,0
STARLINK-11450 [DTC],2025-004H,2026-02-22T14:13:38.903232,15.70914604,.0000518,42.9994,161.7751,208.5413,151.5426,0,U,62518,999,6483,.20646E-2,.274265E-2,0
STARLINK-11507 [DTC],2025-004J,2026-02-21T16:59:26.983680,15.70879290,.00016417,42.9999,167.1840,264.3048,95.7633,0,U,62519,999,6469,.11024326E-2,.143718E-2,0
STARLINK-11482 [DTC],2025-004K,2026-02-22T16:38:32.064288,15.70897043,.00015183,42.9988,160.7959,273.4779,86.5915,0,U,62520,999,6485,.14784138E-2,.194215E-2,0
STARLINK-11528 [DTC],2025-004L,2026-02-22T08:37:58.771200,15.71088160,.00011421,42.9992,163.4762,231.4910,128.5855,0,U,62521,999,6479,.28878482E-2,.392208E-2,0
STARLINK-11516 [DTC],2025-004M,2026-02-22T17:01:27.937632,15.70927536,.00024742,42.9988,160.9216,237.0253,123.0377,0,U,62522,999,6485,.16839903E-2,.222334E-2,0
STARLINK-11527 [DTC],2025-004N,2026-02-22T16:46:10.654752,15.70929013,.0002153,42.9984,160.8358,261.9015,98.1608,0,U,62523,999,6485,.15477273E-2,.203858E-2,0
STARLINK-32748,2025-004P,2026-02-22T17:39:16.262496,15.27611497,.00004145,42.9985,304.1507,25.9727,334.1146,0,U,62524,999,6417,.10414556E-2,.28535E-3,0
STARLINK-32777,2025-004Q,2026-02-22T23:19:05.642976,15.27588662,.00020329,42.9996,303.3429,269.0508,91.0111,0,U,62525,999,6420,.1310891E-2,.35997E-3,0
STARLINK-32741,2025-004R,2026-02-22T16:46:31.574784,15.27593926,.00006832,42.9966,301.2743,306.0112,54.0676,0,U,62526,999,6420,.11259429E-2,.30864E-3,0
STARLINK-32754,2025-004S,2026-02-22T02:19:53.773824,15.27622245,.00015006,43.0021,307.9623,284.2610,75.8075,0,U,62527,999,6312,.99403479E-3,.27228E-3,0
STARLINK-32786,2025-004T,2026-02-22T17:13:22.282464,15.27586454,.00010866,43.0004,304.0120,269.1115,90.9613,0,U,62528,999,6322,.94961422E-3,.25966E-3,0
STARLINK-32789,2025-004U,2026-02-22T22:53:11.312160,15.27613897,.00005755,43.0021,303.1971,271.4690,88.6096,0,U,62529,999,6420,.90522751E-3,.24757E-3,0
STARLINK-32791,2025-004V,2026-02-22T17:50:21.851808,15.27616184,.00016412,43.0013,304.2002,259.7074,100.3593,0,U,62530,999,6417,.95102146E-3,.26029E-3,0
STARLINK-32785,2025-004W,2026-02-22T23:04:17.568480,15.27595435,.00021545,43.0007,303.2663,273.7425,86.3181,0,U,62531,999,6420,.13418081E-2,.36865E-3,0
STARLINK-11538 [DTC],2025-006A,2026-02-22T20:34:09.869088,15.70914177,.00017502,42.9996,228.9433,278.1530,81.9139,0,U,62554,999,6427,.17077366E-2,.225425E-2,0
STARLINK-11534 [DTC],2025-006B,2026-02-22T20:41:48.976224,15.70908385,.00008238,42.9997,228.9857,307.5956,52.4837,0,U,62555,999,6427,.17132858E-2,.226124E-2,0
STARLINK-11515 [DTC],2025-006C,2026-02-22T20:11:24.614304,15.70930600,.00023688,43.0008,229.7088,280.1030,79.9570,0,U,62556,999,6426,.16623399E-2,.219418E-2,0
STARLINK-11478 [DTC],2025-006D,2026-02-22T22:43:56.498880,15.70928936,.00019906,42.9999,228.7720,265.4351,94.6289,0,U,62557,999,6428,.12946525E-2,.169745E-2,0
STARLINK-11358 [DTC],2025-006E,2026-02-21T20:39:48.132000,15.70879405,.0003231,43.0012,235.2444,342.8644,17.2114,0,U,62558,999,6411,.21006E-2,.278814E-2,0
STARLINK-11517 [DTC],2025-006F,2026-02-22T22:51:35.301024,15.70926654,.00017166,42.9997,228.8135,272.4802,87.5869,0,U,62559,999,6428,.13298211E-2,.174449E-2,0
STARLINK-11519 [DTC],2025-006G,2026-02-22T20:20:20.297760,15.71062904,.00021239,42.9989,229.7577,313.1693,46.8997,0,U,62560,999,6426,.22268514E-2,.298576E-2,0
STARLINK-11451 [DTC],2025-006H,2026-02-22T22:21:00.573696,15.70924632,.00019183,42.9996,228.6430,294.2316,65.8351,0,U,62561,999,6428,.13632646E-2,.178931E-2,0
STARLINK-11530 [DTC],2025-006J,2026-02-22T18:47:29.611968,15.70947768,.00010554,43.0008,230.1324,210.3973,149.6833,0,U,62562,999,6425,.23515243E-2,.314405E-2,0
STARLINK-11536 [DTC],2025-006K,2026-02-22T13:19:18.237216,15.71025106,.0002871,42.9997,230.9826,252.8175,107.2379,0,U,62563,999,6422,.26697E-2,.360173E-2,0
STARLINK-11540 [DTC],2025-006L,2026-02-22T21:27:40.850784,15.70917045,.00011456,42.9990,229.2368,316.9504,43.1274,0,U,62564,999,6427,.13283121E-2,.174172E-2,0
