STARLINK-11514 [DTC]    
1 62514U 25004D   26053.71026903  .00215927  00000+0  16388-2 0  9996
2 62514  42.9999 160.9337 0000889 269.6404  90.4362 15.70900066 64858
STARLINK-11508 [DTC]    
1 62515U 25004E   26053.76763131  .00236956  00000+0  17931-2 0  9993
2 62515  42.9988 160.4999 0001522 282.8687  77.2011 15.70905177 64864
STARLINK-11510 [DTC]    
1 62516U 25004F   26053.91668981 -.00104216  00000+0 -81637-3 0  9998
2 62516  42.9997 160.0493 0001496 284.8992  18.7435 15.70912675  5979
STARLINK-11512 [DTC]    
1 62517U 25004G   26053.30662362  .00332147  00000+0  24720-2 0  9992
2 62517  42.9985 163.0534 0001272 223.6718 136.4049 15.71012592 64799
STARLINK-11450 [DTC]    
1 62518U 25004H   26053.59281138  .00274265  00000+0  20646-2 0  9991
2 62518  42.9994 161.7751 0000518 208.5413 151.5426 15.70914604 64838
STARLINK-11507 [DTC]    
1 62519U 25004J   26052.70795120  .00143718  00000+0  11024-2 0  9993
2 62519  42.9999 167.1840 0001641 264.3048  95.7633 15.70879290 64699
STARLINK-11482 [DTC]    
1 62520U 25004K   26053.69342667  .00194215  00000+0  14784-2 0  9992
2 62520  42.9988 160.7959 0001518 273.4779  86.5915 15.70897043 64859
STARLINK-11528 [DTC]    
1 62521U 25004L   26053.35970800  .00392208  00000+0  28878-2 0  9993
2 62521  42.9992 163.4762 0001142 231.4910 128.5855 15.71088160 64797
STARLINK-11516 [DTC]    
1 62522U 25004M   26053.70935113  .00222334  00000+0  16840-2 0  9999
2 62522  42.9988 160.9216 0002474 237.0253 123.0377 15.70927536 64854
STARLINK-11527 [DTC]    
1 62523U 25004N   26053.69873443  .00203858  00000+0  15477-2 0  9990
2 62523  42.9984 160.8358 0002153 261.9015  98.1608 15.70929013 64854
STARLINK-32748          
1 62524U 25004P   26053.73560489  .00028535  00000+0  10415-2 0  9993
2 62524  42.9985 304.1507 0000414  25.9727 334.1146 15.27611497 64172
STARLINK-32777          
1 62525U 25004Q   26053.97159309  .00035997  00000+0  13109-2 0  9998
2 62525  42.9996 303.3429 0002032 269.0508  91.0111 15.27588662 64207
STARLINK-32741          
1 62526U 25004R   26053.69897656  .00030864  00000+0  11259-2 0  9994
2 62526  42.9966 301.2743 0000683 306.0112  54.0676 15.27593926 64208
STARLINK-32754          
1 62527U 25004S   26053.09715016  .00027228  00000+0  99403-3 0  9996
2 62527  43.0021 307.9623 0001500 284.2610  75.8075 15.27622245 63123
STARLINK-32786          
1 62528U 25004T   26053.71761901  .00025966  00000+0  94961-3 0  9991
2 62528  43.0004 304.0120 0001086 269.1115  90.9613 15.27586454 63224
STARLINK-32789          
1 62529U 25004U   26053.95360315  .00024757  00000+0  90523-3 0  9999
2 62529  43.0021 303.1971 0000575 271.4690  88.6096 15.27613897 64204
STARLINK-32791          
1 62530U 25004V   26053.74330847  .00026029  00000+0  95102-3 0  9997
2 62530  43.0013 304.2002 0001641 259.7074 100.3593 15.27616184 64176
STARLINK-32785          
1 62531U 25004W   26053.96131445  .00036865  00000+0  13418-2 0  9993
2 62531  43.0007 303.2663 0002154 273.7425  86.3181 15.27595435 64203
STARLINK-11538 [DTC]    
1 62554U 25006A   26053.85705867  .00225425  00000+0  17077-2 0  9990
2 62554  42.9996 228.9433 0001750 278.1530  81.9139 15.70914177 64275
STARLINK-11534 [DTC]    
1 62555U 25006B   26053.86237241  .00226124  00000+0  17133-2 0  9998
2 62555  42.9997 228.9857 0000823 307.5956  52.4837 15.70908385 64278
STARLINK-11515 [DTC]    
1 62556U 25006C   26053.84125711  .00219418  00000+0  16623-2 0  9996
2 62556  43.0008 229.7088 0002368 280.1030  79.9570 15.70930600 64266
STARLINK-11478 [DTC]    
1 62557U 25006D   26053.94718170  .00169745  00000+0  12947-2 0  9997
2 62557  42.9999 228.7720 0001990 265.4351  94.6289 15.70928936 64280
STARLINK-11358 [DTC]    
1 62558U 25006E   26052.86097375  .00278814  00000+0  21006-2 0  9999
2 62558  43.0012 235.2444 0003231 342.8644  17.2114 15.70879405 64116
STARLINK-11517 [DTC]    
1 62559U 25006F   26053.95249191  .00174449  00000+0  13298-2 0  9999
2 62559  42.9997 228.8135 0001716 272.4802  87.5869 15.70926654 64286
STARLINK-11519 [DTC]    
1 62560U 25006G   26053.84745715  .00298576  00000+0  22269-2 0  9998
2 62560  42.9989 229.7577 0002123 313.1693  46.8997 15.71062904 64261
STARLINK-11451 [DTC]    
1 62561U 25006H   26053.93125664  .00178931  00000+0  13633-2 0  9991
2 62561  42.9996 228.6430 0001918 294.2316  65.8351 15.70924632 64289
STARLINK-11530 [DTC]    
1 62562U 25006J   26053.78298162  .00314405  00000+0  23515-2 0  9997
2 62562  43.0008 230.1324 0001055 210.3973 149.6833 15.70947768 64254
STARLINK-11536 [DTC]    
1 62563U 25006K   26053.55507219  .00360173  00000+0  26697-2 0  9996
2 62563  42.9997 230.9826 0002871 252.8175 107.2379 15.71025106 64223
STARLINK-11540 [DTC]    
1 62564U 25006L   26053.89422281  .00174172  00000+0  13283-2 0  9998
2 62564  42.9990 229.2368 0001145 316.9504  43.1274 15.70917045 64278
